[{"OBJECT_NAME":"STARLINK-3518","OBJECT_ID":"2022-016U","EPOCH":"2026-03-09T22:16:30.904608","MEAN_MOTION":15.08831596,"ECCENTRICITY":0.00020824,"INCLINATION":53.2202,"RA_OF_ASC_NODE":318.0543,"ARG_OF_PERICENTER":95.3717,"MEAN_ANOMALY":264.7513,"EPHEMERIS_TYPE":0,"CLASSIFICATION_TYPE":"U","NORAD_CAT_ID":51732,"ELEMENT_SET_NO":999,"REV_AT_EPOCH":22474,"BSTAR":2.3749512e-5,"MEAN_MOTION_DOT":9.0e-7,"MEAN_MOTION_DDOT":0},{"OBJECT_NAME":"OBJECT E","OBJECT_ID":"2025-292E","EPOCH":"2026-03-09T23:06:13.350528","MEAN_MOTION":15.05603019,"ECCENTRICITY":0.00142209,"INCLINATION":97.6388,"RA_OF_ASC_NODE":145.6972,"ARG_OF_PERICENTER":344.4497,"MEAN_ANOMALY":15.6291,"EPHEMERIS_TYPE":0,"CLASSIFICATION_TYPE":"U","NORAD_CAT_ID":66997,"ELEMENT_SET_NO":999,"REV_AT_EPOCH":1350,"BSTAR":0.00040225725,"MEAN_MOTION_DOT":5.752e-5,"MEAN_MOTION_DDOT":0}]
